[{"OBJECT_NAME":"STARLINK-35722","OBJECT_ID":"2025-244N","EPOCH":"2026-03-09T16:56:13.108992","MEAN_MOTION":15.31300028,"ECCENTRICITY":0.00091815,"INCLINATION":53.16,"RA_OF_ASC_NODE":229.7194,"ARG_OF_PERICENTER":146.9205,"MEAN_ANOMALY":213.2373,"EPHEMERIS_TYPE":0,"CLASSIFICATION_TYPE":"U","NORAD_CAT_ID":66218,"ELEMENT_SET_NO":999,"REV_AT_EPOCH":2166,"BSTAR":0.001827358,"MEAN_MOTION_DOT":0.00056123,"MEAN_MOTION_DDOT":0},{"OBJECT_NAME":"TRANSPORTER-1 OBJECT Z","OBJECT_ID":"2021-006Z","EPOCH":"2026-03-09T22:55:57.522432","MEAN_MOTION":15.30965056,"ECCENTRICITY":0.00100878,"INCLINATION":97.2377,"RA_OF_ASC_NODE":113.4736,"ARG_OF_PERICENTER":179.6869,"MEAN_ANOMALY":180.438,"EPHEMERIS_TYPE":0,"CLASSIFICATION_TYPE":"U","NORAD_CAT_ID":47436,"ELEMENT_SET_NO":999,"REV_AT_EPOCH":28420,"BSTAR":0.00024088983,"MEAN_MOTION_DOT":7.143e-5,"MEAN_MOTION_DDOT":0}]
